{"type": "FeatureCollection", "features": [ {"type": "Feature", "properties": {"norad_id": 34634, "name": "COSMOS 2251 DEB", "group": "cosmos-2251-debris", "lat": 15.589090609762918, "lon": -144.87092967071615, "alt_km": 677.426506879071, "timestamp": "2025-12-10T05:46:14.221506+00:00", "meta": {"OBJECT_NAME": "COSMOS 2251 DEB", "OBJECT_ID": "1993-036XF", "EPOCH": "2025-12-09T14:52:21.177984", "MEAN_MOTION": 14.55644976, "ECCENTRICITY": 0.0044329, "INCLINATION": 74.0525, "RA_OF_ASC_NODE": 40.8795, "ARG_OF_PERICENTER": 149.1855, "MEAN_ANOMALY": 2.7227, "EPHEMERIS_TYPE": 0, "CLASSIFICATION_TYPE": "U", "NORAD_CAT_ID": 34634, "ELEMENT_SET_NO": 999, "REV_AT_EPOCH": 88736, "BSTAR": 0.0005767, "MEAN_MOTION_DOT": 2.523e-05, "MEAN_MOTION_DDOT": 0}, "tle": {"line1": "1 34634U 93036XF  25343.61968956  .00002523  00000+0  57670-3 0  9997", "line2": "2 34634  74.0525  40.8795 0044329 149.1855   2.7227 14.55644976887366"}}, "geometry": {"type": "Point", "coordinates": [-144.87092967071615, 15.589090609762918]}}, {"type": "Feature", "properties": {"norad_id": 34635, "name": "COSMOS 2251 DEB", "group": "cosmos-2251-debris", "lat": -73.86885350640337, "lon": -5.993834607448304, "alt_km": 686.0081460061901, "timestamp": "2025-12-10T05:46:14.221516+00:00", "meta": {"OBJECT_NAME": "COSMOS 2251 DEB", "OBJECT_ID": "1993-036XG", "EPOCH": "2025-12-09T09:13:46.007328", "MEAN_MOTION": 14.68189273, "ECCENTRICITY": 0.00288851, "INCLINATION": 74.0455, "RA_OF_ASC_NODE": 77.1985, "ARG_OF_PERICENTER": 147.0623, "MEAN_ANOMALY": 283.1189, "EPHEMERIS_TYPE": 0, "CLASSIFICATION_TYPE": "U", "NORAD_CAT_ID": 34635, "ELEMENT_SET_NO": 999, "REV_AT_EPOCH": 73170, "BSTAR": 0.0019014244, "MEAN_MOTION_DOT": 0.00011001, "MEAN_MOTION_DDOT": 0}, "tle": {"line1": "1 34635U 93036XG  25343.38456027  .00011001  00000+0  19014-2 0  9993", "line2": "2 34635  74.0455  77.1985 0028885 147.0623 283.1189 14.68189273731708"}}, "geometry": {"type": "Point", "coordinates": [-5.993834607448304, -73.86885350640337]}}, {"type": "Feature", "properties": {"norad_id": 34637, "name": "COSMOS 2251 DEB", "group": "cosmos-2251-debris", "lat": 4.214131062254874, "lon": -75.28434783300332, "alt_km": 659.6673840193562, "timestamp": "2025-12-10T05:46:14.221525+00:00", "meta": {"OBJECT_NAME": "COSMOS 2251 DEB", "OBJECT_ID": "1993-036XJ", "EPOCH": "2025-12-09T18:13:09.557760", "MEAN_MOTION": 14.60049838, "ECCENTRICITY": 0.0050065, "INCLINATION": 74.0498, "RA_OF_ASC_NODE": 106.8405, "ARG_OF_PERICENTER": 178.0438, "MEAN_ANOMALY": 348.6861, "EPHEMERIS_TYPE": 0, "CLASSIFICATION_TYPE": "U", "NORAD_CAT_ID": 34637, "ELEMENT_SET_NO": 999, "REV_AT_EPOCH": 88483, "BSTAR": 0.0018, "MEAN_MOTION_DOT": 8.782e-05, "MEAN_MOTION_DDOT": 0}, "tle": {"line1": "1 34637U 93036XJ  25343.75913840  .00008782  00000+0  18000-2 0  9993", "line2": "2 34637  74.0498 106.8405 0050065 178.0438 348.6861 14.60049838884838"}}, "geometry": {"type": "Point", "coordinates": [-75.28434783300332, 4.214131062254874]}}, {"type": "Feature", "properties": {"norad_id": 34641, "name": "COSMOS 2251 DEB", "group": "cosmos-2251-debris", "lat": -55.29280187250468, "lon": -68.83568480120243, "alt_km": 732.9001649532656, "timestamp": "2025-12-10T05:46:14.221536+00:00", "meta": {"OBJECT_NAME": "COSMOS 2251 DEB", "OBJECT_ID": "1993-036XN", "EPOCH": "2025-12-08T08:18:31.274784", "MEAN_MOTION": 14.51947493, "ECCENTRICITY": 0.00179207, "INCLINATION": 73.839, "RA_OF_ASC_NODE": 90.0233, "ARG_OF_PERICENTER": 6.2701, "MEAN_ANOMALY": 55.3534, "EPHEMERIS_TYPE": 0, "CLASSIFICATION_TYPE": "U", "NORAD_CAT_ID": 34641, "ELEMENT_SET_NO": 999, "REV_AT_EPOCH": 88192, "BSTAR": 0.0014885346, "MEAN_MOTION_DOT": 5.995e-05, "MEAN_MOTION_DDOT": 0}, "tle": {"line1": "1 34641U 93036XN  25342.34619531  .00005995  00000+0  14885-2 0  9992", "line2": "2 34641  73.8390  90.0233 0017920   6.2701  55.3534 14.51947493881922"}}, "geometry": {"type": "Point", "coordinates": [-68.83568480120243, -55.29280187250468]}}, {"type": "Feature", "properties": {"norad_id": 34642, "name": "COSMOS 2251 DEB", "group": "cosmos-2251-debris", "lat": 69.77045952404306, "lon": 35.23892592330794, "alt_km": 879.5399229866753, "timestamp": "2025-12-10T05:46:14.221546+00:00", "meta": {"OBJECT_NAME": "COSMOS 2251 DEB", "OBJECT_ID": "1993-036XP", "EPOCH": "2025-12-09T18:13:17.254272", "MEAN_MOTION": 13.9896193, "ECCENTRICITY": 0.0207449, "INCLINATION": 74.0052, "RA_OF_ASC_NODE": 344.9639, "ARG_OF_PERICENTER": 165.5338, "MEAN_ANOMALY": 11.7352, "EPHEMERIS_TYPE": 0, "CLASSIFICATION_TYPE": "U", "NORAD_CAT_ID": 34642, "ELEMENT_SET_NO": 999, "REV_AT_EPOCH": 85251, "BSTAR": 0.0013683, "MEAN_MOTION_DOT": 2.353e-05, "MEAN_MOTION_DDOT": 0}, "tle": {"line1": "1 34642U 93036XP  25343.75922748  .00002353  00000+0  13683-2 0  9996", "line2": "2 34642  74.0052 344.9639 0207449 165.5338  11.7352 13.98961930852513"}}, "geometry": {"type": "Point", "coordinates": [35.23892592330794, 69.77045952404306]}}, {"type": "Feature", "properties": {"norad_id": 34671, "name": "COSMOS 2251 DEB", "group": "cosmos-2251-debris", "lat": -27.909123059031323, "lon": -32.15292190814801, "alt_km": 668.4591380958054, "timestamp": "2025-12-10T05:46:14.221575+00:00", "meta": {"OBJECT_NAME": "COSMOS 2251 DEB", "OBJECT_ID": "1993-036XR", "EPOCH": "2025-12-09T17:26:17.672352", "MEAN_MOTION": 14.66843353, "ECCENTRICITY": 0.0011692, "INCLINATION": 74.0267, "RA_OF_ASC_NODE": 140.1121, "ARG_OF_PERICENTER": 220.0956, "MEAN_ANOMALY": 156.6146, "EPHEMERIS_TYPE": 0, "CLASSIFICATION_TYPE": "U", "NORAD_CAT_ID": 34671, "ELEMENT_SET_NO": 999, "REV_AT_EPOCH": 88253, "BSTAR": 0.0027981, "MEAN_MOTION_DOT": 0.00015648, "MEAN_MOTION_DDOT": 0}, "tle": {"line1": "1 34671U 93036XR  25343.72659343  .00015648  00000+0  27981-2 0  9990", "line2": "2 34671  74.0267 140.1121 0011692 220.0956 156.6146 14.66843353882530"}}, "geometry": {"type": "Point", "coordinates": [-32.15292190814801, -27.909123059031323]}}, {"type": "Feature", "properties": {"norad_id": 34672, "name": "COSMOS 2251 DEB", "group": "cosmos-2251-debris", "lat": -54.420032731009314, "lon": -73.40704453487328, "alt_km": 774.2231364640338, "timestamp": "2025-12-10T05:46:14.221587+00:00", "meta": {"OBJECT_NAME": "COSMOS 2251 DEB", "OBJECT_ID": "1993-036XS", "EPOCH": "2025-12-08T07:33:35.281152", "MEAN_MOTION": 14.36398163, "ECCENTRICITY": 0.00235672, "INCLINATION": 74.0335, "RA_OF_ASC_NODE": 313.7193, "ARG_OF_PERICENTER": 26.7043, "MEAN_ANOMALY": 43.2667, "EPHEMERIS_TYPE": 0, "CLASSIFICATION_TYPE": "U", "NORAD_CAT_ID": 34672, "ELEMENT_SET_NO": 999, "REV_AT_EPOCH": 65114, "BSTAR": 0.00050497184, "MEAN_MOTION_DOT": 1.458e-05, "MEAN_MOTION_DDOT": 0}, "tle": {"line1": "1 34672U 93036XS  25342.31499168  .00001458  00000+0  50497-3 0  9995", "line2": "2 34672  74.0335 313.7193 0023567  26.7043  43.2667 14.36398163651147"}}, "geometry": {"type": "Point", "coordinates": [-73.40704453487328, -54.420032731009314]}}, {"type": "Feature", "properties": {"norad_id": 34678, "name": "COSMOS 2251 DEB", "group": "cosmos-2251-debris", "lat": -2.736331714115903, "lon": -168.97842442195568, "alt_km": 803.8158682140029, "timestamp": "2025-12-10T05:46:14.221597+00:00", "meta": {"OBJECT_NAME": "COSMOS 2251 DEB", "OBJECT_ID": "1993-036XY", "EPOCH": "2025-12-09T08:52:22.321056", "MEAN_MOTION": 14.30064255, "ECCENTRICITY": 0.00243381, "INCLINATION": 74.0379, "RA_OF_ASC_NODE": 11.8201, "ARG_OF_PERICENTER": 62.0251, "MEAN_ANOMALY": 319.4943, "EPHEMERIS_TYPE": 0, "CLASSIFICATION_TYPE": "U", "NORAD_CAT_ID": 34678, "ELEMENT_SET_NO": 999, "REV_AT_EPOCH": 87331, "BSTAR": 5.4845425e-05, "MEAN_MOTION_DOT": 1.16e-06, "MEAN_MOTION_DDOT": 0}, "tle": {"line1": "1 34678U 93036XY  25343.36970279  .00000116  00000+0  54845-4 0  9996", "line2": "2 34678  74.0379  11.8201 0024338  62.0251 319.4943 14.30064255873314"}}, "geometry": {"type": "Point", "coordinates": [-168.97842442195568, -2.736331714115903]}}, {"type": "Feature", "properties": {"norad_id": 34680, "name": "COSMOS 2251 DEB", "group": "cosmos-2251-debris", "lat": -9.641851736290198, "lon": -42.58388802119722, "alt_km": 691.4133710534752, "timestamp": "2025-12-10T05:46:14.221607+00:00", "meta": {"OBJECT_NAME": "COSMOS 2251 DEB", "OBJECT_ID": "1993-036YA", "EPOCH": "2025-12-09T03:09:20.077632", "MEAN_MOTION": 14.60556686, "ECCENTRICITY": 0.00068853, "INCLINATION": 74.043, "RA_OF_ASC_NODE": 136.7461, "ARG_OF_PERICENTER": 232.5259, "MEAN_ANOMALY": 248.8921, "EPHEMERIS_TYPE": 0, "CLASSIFICATION_TYPE": "U", "NORAD_CAT_ID": 34680, "ELEMENT_SET_NO": 999, "REV_AT_EPOCH": 88275, "BSTAR": 0.001505197, "MEAN_MOTION_DOT": 7.293e-05, "MEAN_MOTION_DDOT": 0}, "tle": {"line1": "1 34680U 93036YA  25343.13148238  .00007293  00000+0  15052-2 0  9994", "line2": "2 34680  74.0430 136.7461 0006885 232.5259 248.8921 14.60556686882755"}}, "geometry": {"type": "Point", "coordinates": [-42.58388802119722, -9.641851736290198]}}, {"type": "Feature", "properties": {"norad_id": 34681, "name": "COSMOS 2251 DEB", "group": "cosmos-2251-debris", "lat": -33.94638318134443, "lon": 126.42617605409905, "alt_km": 638.4815054751589, "timestamp": "2025-12-10T05:46:14.221618+00:00", "meta": {"OBJECT_NAME": "COSMOS 2251 DEB", "OBJECT_ID": "1993-036YB", "EPOCH": "2025-12-09T20:50:41.266752", "MEAN_MOTION": 14.83101891, "ECCENTRICITY": 0.0025658, "INCLINATION": 74.0629, "RA_OF_ASC_NODE": 296.0707, "ARG_OF_PERICENTER": 353.2406, "MEAN_ANOMALY": 37.5033, "EPHEMERIS_TYPE": 0, "CLASSIFICATION_TYPE": "U", "NORAD_CAT_ID": 34681, "ELEMENT_SET_NO": 999, "REV_AT_EPOCH": 89228, "BSTAR": 0.0024676, "MEAN_MOTION_DOT": 0.00020248, "MEAN_MOTION_DDOT": 0}, "tle": {"line1": "1 34681U 93036YB  25343.86853318  .00020248  00000+0  24676-2 0  9994", "line2": "2 34681  74.0629 296.0707 0025658 353.2406  37.5033 14.83101891892288"}}, "geometry": {"type": "Point", "coordinates": [126.42617605409905, -33.94638318134443]}}]}